#aV2021 11 23  0  0  0.00000000     288 DD+AD WGS84 FIT  NGA
## 2185 172800.00000000   300.00000000 59541 0.0000000000000
+   32     1  2  3  4  5  6  7  8  9 10 11 12 13 14 15 16 17
+         18 19 20 21 22 23 24 25 26 27 28 29 30 31 32  0  0
+          0  0  0  0  0  0  0  0  0  0  0  0  0  0  0  0  0
+          0  0  0  0  0  0  0  0  0  0  0  0  0  0  0  0  0
+          0  0  0  0  0  0  0  0  0  0  0  0  0  0  0  0  0
++         2  2  2  2  2  2  2  2  2  2  2  2  2  2  2  2  2
++         2  2  2  2  2  2  2  2  2  2  2  2  2  2  2  0  0
++         0  0  0  0  0  0  0  0  0  0  0  0  0  0  0  0  0
++         0  0  0  0  0  0  0  0  0  0  0  0  0  0  0  0  0
++         0  0  0  0  0  0  0  0  0  0  0  0  0  0  0  0  0
%c cc cc ccc ccc cccc cccc cccc cccc ccccc ccccc ccccc ccccc
%c cc cc ccc ccc cccc cccc cccc cccc ccccc ccccc ccccc ccccc
%f  0.0000000  0.000000000  0.00000000000  0.000000000000000
%f  0.0000000  0.000000000  0.00000000000  0.000000000000000
%i    0    0    0    0      0      0      0      0         0
%i    0    0    0    0      0      0      0      0         0
/*      NGA, ST. LOUIS,MO.                                  
/*   EPHEMERIS COMPUTED FROM 2 DAYS OF DATA                 
/*   EPOCHA v7 SMOOTHER                                     
/*   G2139 IERS2010 SATIGS SATCOM                           
*  2021 11 23 14 45  0.00000000
P  1 -13841.315813  21310.499645   6822.600034    502.917090                    
V  1   1463.982791  -9242.351960  30939.684108     -0.103938                    
P  2  15785.467598  -2557.689256 -20566.974498   -643.144650                    
V  2  -7649.969655  26545.591520  -8803.008286     -0.014789                    
P  3 -18078.024796  12698.591828 -14775.482188    -21.056489                    
V  3 -18675.383272    706.182902  23722.197774     -0.102499                    
P  4  -7705.416648  14352.943165 -20963.405369   -201.128815                    
V  4 -16282.024828 -21096.206656  -8531.015484      0.010024                    
P  5  26075.818170  -5354.166294    957.669820    -62.045494                    
V  5   1874.152051   2473.394913 -31575.769768     -0.012891                    
P  6   8993.237220  14028.538321 -20600.172023    124.966736                    
V  6 -10678.980908  24000.466720  11700.451092      0.094126                    
P  7  -3958.002000  24809.051103   8175.548975    281.973419                    
V  7  -6807.051223   8040.076640 -29501.664244      0.051098                    
P  8 -15840.019334   3602.684347  21061.001829    -45.327187                    
V  8 -16362.160600 -21094.765978  -8372.539461     -0.015531                    
P  9   3391.346020  21480.847058 -15303.153448   -361.457470                    
V  9 -13835.732802 -13672.751597 -22394.921035      0.004105                    
P 10 -12109.797501 -12339.149853  20369.386593   -252.635912                    
V 10  25110.403131  -4343.603285  12087.376112     -0.086144                    
P 11  15962.039453    899.320398 -21214.503123     17.862373                    
V 11 -10964.232462  24596.388416  -7224.220916     -0.021405                    
P 12  20110.760094 -10757.210411 -13751.136305   -130.554959                    
V 12  17162.200636    810.679943  25057.333837     -0.055607                    
P 13  17973.879900   5170.435883  18766.005850    218.935928                    
V 13  11029.926907  21439.120845 -16187.558912      0.057222                    
P 14  11352.049608  13176.145152  20087.905047    -43.394742                    
V 14 -25288.199575   3563.540547  11894.727980     -0.066771                    
P 15  15501.971005  -6005.866290  20370.422058   -104.336830                    
V 15  18334.303749  19618.476956  -7683.440741      0.028187                    
P 16 -26773.485401    126.566396  -1701.224426   -429.016626                    
V 16   1722.903870  -2155.370517 -31594.469640     -0.063786                    
P 17  12517.341123  23125.936409   4075.941178    537.775871                    
V 17  -4370.786345  -2605.387246  31650.510872      0.054173                    
P 18   4015.262668 -24661.827784   8852.037374    291.069439                    
V 18   6648.534568  -9403.207334 -29291.508396     -0.060610                    
P 19  16824.624366  19963.785645  -5617.417563     83.047910                    
V 19   1868.060853   6782.015581  30992.693524      0.049958                    
P 20  24514.203404    225.704714  -9900.982617    517.978457                    
V 20 -11209.175005   6746.134398 -27909.898400     -0.001953                    
P 21 -16145.590520  14414.151389  15677.962439    151.842547                    
V 21   3663.726673 -18702.653237  22505.243592      0.010890                    
P 22 -23152.521814  10807.273600  -6673.720109   -457.945726                    
V 22  -9379.141803  -1360.172336  29789.739579      0.090475                    
P 23   1004.794156 -15319.879256  21645.559558     29.659488                    
V 23  27212.724127  -4141.293026  -4273.708855     -0.043337                    
P 24  14604.867435 -18818.256163  11027.558272    269.777897                    
V 24  -1146.495266  14992.223900  26845.235909      0.034100                    
P 25   9168.469668 -15357.706021 -19815.326877    245.075789                    
V 25  24605.371566  -2216.858795  13556.222084      0.058901                    
P 26 -21678.264796  -6452.046486 -14223.263343    158.202513                    
V 26  17123.940206  -5688.138757 -23332.068314      0.037573                    
P 27 -19719.066061  -7337.716286  16252.518372   -222.697458                    
V 27 -11658.049957 -17287.106179 -21336.416905     -0.046052                    
P 28  17868.260224  10750.259368  16861.657760    457.121461                    
V 28 -20365.577945   2512.784588  20854.470627     -0.075116                    
P 29   1506.430313 -19450.437847 -18032.179525   -444.555618                    
V 29  13676.318249  18273.191442 -18669.730768     -0.052018                    
P 30   4040.507610  20640.118762  16145.719548   -493.753158                    
V 30 -10409.975100  17885.995606 -20582.028363     -0.031213                    
P 31 -11161.301393 -11712.647194 -21093.924807   -151.601152                    
V 31  11467.038566 -24060.994592   7797.115801     -0.018971                    
P 32 -16388.122576 -21030.357021    265.958098    -25.688586                    
V 32   2301.318079  -1566.768546  31552.171945     -0.049372                    
EOF
